{
  "type": "FeatureCollection",
  "name": "nayarit_idoneidad_cafe",
  "metadata": {
    "titulo": "Área de estudio: estado de Nayarit, México",
    "descripcion": "Polígonos de idoneidad para el cultivo de café (Coffea arabica) con base en el modelo de distribución potencial de máxima entropía (MaxEnt, AUC 0.98) mediante el cual se delimita el Área Prioritaria de Producción Sostenible de Café (APS-Café). Fuente: Avalos-Jiménez et al. (2023, Ecologies 4(2):269-287) y Ávalos-Jiménez et al. (2026, DOI 10.52501/cc.448.07). Los polígonos son representaciones esquemáticas del corredor de aptitud identificado en el estudio.",
    "proyeccion": "WGS84 (EPSG:4326)",
    "clasificacion_idoneidad": {
      "Alta": "valores >= 0.5",
      "Media": "valores 0.30-0.49",
      "Baja": "valores < 0.30"
    }
  },
  "features": [
    {
      "type": "Feature",
      "properties": {
        "capa": "limite",
        "nombre": "Nayarit (área de estudio)",
        "descripcion": "Estado de Nayarit, región centro-occidente de México. 27,888 km2, 20 municipios. Superficie sembrada de café: 162.46 km2 (2012) -> 33 km2 (2020)."
      },
      "geometry": {
        "type": "Polygon",
        "coordinates": [
          [
            [-105.65, 20.72],
            [-105.45, 20.72],
            [-105.28, 20.75],
            [-105.22, 20.82],
            [-105.15, 21.00],
            [-105.17, 21.20],
            [-105.20, 21.35],
            [-105.22, 21.48],
            [-105.20, 21.58],
            [-105.28, 21.70],
            [-105.38, 21.82],
            [-105.50, 21.92],
            [-105.62, 22.03],
            [-105.75, 22.15],
            [-105.87, 22.30],
            [-105.90, 22.45],
            [-105.95, 22.60],
            [-105.98, 22.75],
            [-106.02, 22.90],
            [-106.08, 23.05],
            [-106.05, 23.12],
            [-105.90, 23.05],
            [-105.65, 22.95],
            [-105.35, 22.88],
            [-105.05, 22.85],
            [-104.75, 22.75],
            [-104.50, 22.60],
            [-104.30, 22.40],
            [-104.22, 22.15],
            [-104.20, 21.85],
            [-104.30, 21.55],
            [-104.42, 21.25],
            [-104.55, 21.00],
            [-104.70, 20.78],
            [-104.85, 20.68],
            [-105.00, 20.65],
            [-105.15, 20.68],
            [-105.30, 20.70],
            [-105.45, 20.72],
            [-105.65, 20.72]
          ]
        ]
      }
    },
    {
      "type": "Feature",
      "properties": {
        "capa": "idoneidad",
        "categoria": "Alta",
        "rango": ">= 0.5",
        "descripcion": "Corredor central Tepic-Xalisco-Compostela y suroeste de San Blas. Isotermalidad 68.3-69.2, precipitación del cuarto más cálido 1,000-1,010 mm, altitud 600-1,000 m s.n.m. Corresponde a la Zona Núcleo del APS-Café (831 km2)."
      },
      "geometry": {
        "type": "Polygon",
        "coordinates": [
          [
            [-105.02, 21.08],
            [-105.10, 21.18],
            [-105.14, 21.30],
            [-105.10, 21.44],
            [-105.02, 21.56],
            [-104.88, 21.70],
            [-104.74, 21.60],
            [-104.70, 21.45],
            [-104.74, 21.28],
            [-104.84, 21.10],
            [-104.98, 21.04],
            [-105.02, 21.08]
          ]
        ]
      }
    },
    {
      "type": "Feature",
      "properties": {
        "capa": "idoneidad",
        "categoria": "Media",
        "rango": "0.30 - 0.49",
        "descripcion": "Zona de amortiguamiento del APS-Café (2,649 km2), transición entre 400 y 600 m s.n.m., en San Blas (suroeste), Jala/Lagunillas (norte) y Las Varas-Compostela (sur)."
      },
      "geometry": {
        "type": "Polygon",
        "coordinates": [
          [
            [-105.36, 21.85],
            [-105.28, 21.76],
            [-105.16, 21.78],
            [-105.06, 21.74],
            [-105.00, 21.62],
            [-104.92, 21.58],
            [-104.84, 21.66],
            [-104.88, 21.80],
            [-105.00, 21.90],
            [-105.16, 21.96],
            [-105.30, 21.95],
            [-105.36, 21.85]
          ]
        ]
      }
    },
    {
      "type": "Feature",
      "properties": {
        "capa": "idoneidad",
        "categoria": "Media",
        "rango": "0.30 - 0.49",
        "descripcion": "Transición hacia el sur del corredor cafetalero, municipio de Compostela y Las Varas."
      },
      "geometry": {
        "type": "Polygon",
        "coordinates": [
          [
            [-104.98, 21.06],
            [-104.86, 20.95],
            [-104.70, 20.96],
            [-104.60, 21.04],
            [-104.66, 21.16],
            [-104.80, 21.18],
            [-104.92, 21.14],
            [-104.98, 21.06]
          ]
        ]
      }
    },
    {
      "type": "Feature",
      "properties": {
        "capa": "idoneidad",
        "categoria": "Media",
        "rango": "0.30 - 0.49",
        "descripcion": "Transición hacia el norte del corredor, municipios de Tepic (norte) y Jala."
      },
      "geometry": {
        "type": "Polygon",
        "coordinates": [
          [
            [-104.78, 21.78],
            [-104.70, 21.86],
            [-104.60, 21.90],
            [-104.50, 21.80],
            [-104.55, 21.66],
            [-104.66, 21.60],
            [-104.75, 21.66],
            [-104.78, 21.78]
          ]
        ]
      }
    },
    {
      "type": "Feature",
      "properties": {
        "capa": "idoneidad",
        "categoria": "Baja",
        "rango": "< 0.30",
        "descripcion": "Sierras y planícies del norte (Acaponeta, Huajicori, Rosamorada) con aptitud limitada; función de soporte ecosistémico dentro del APS-Café."
      },
      "geometry": {
        "type": "Polygon",
        "coordinates": [
          [
            [-105.55, 22.30],
            [-105.40, 22.18],
            [-105.20, 22.12],
            [-104.95, 22.10],
            [-104.70, 22.08],
            [-104.52, 22.00],
            [-104.42, 21.90],
            [-104.38, 22.05],
            [-104.45, 22.35],
            [-104.55, 22.62],
            [-104.75, 22.80],
            [-105.00, 22.88],
            [-105.25, 22.90],
            [-105.50, 22.85],
            [-105.65, 22.70],
            [-105.70, 22.50],
            [-105.55, 22.30]
          ]
        ]
      }
    },
    {
      "type": "Feature",
      "properties": {
        "capa": "idoneidad",
        "categoria": "Baja",
        "rango": "< 0.30",
        "descripcion": "Serranías del oriente (El Nayar, La Yesca): zona de conservación hidrológica y conectividad del paisaje."
      },
      "geometry": {
        "type": "Polygon",
        "coordinates": [
          [
            [-104.72, 21.04],
            [-104.58, 20.98],
            [-104.44, 20.92],
            [-104.30, 21.00],
            [-104.24, 21.20],
            [-104.22, 21.45],
            [-104.30, 21.62],
            [-104.42, 21.72],
            [-104.55, 21.66],
            [-104.58, 21.44],
            [-104.64, 21.22],
            [-104.72, 21.04]
          ]
        ]
      }
    },
    {
      "type": "Feature",
      "properties": {
        "capa": "idoneidad",
        "categoria": "Baja",
        "rango": "< 0.30",
        "descripcion": "Llanura costera sur (Bahía de Banderas) y costa norte (San Blas a Santiago Ixcuintla), predominio de usos turísticos y agrícolas de baja aptitud cafetalera."
      },
      "geometry": {
        "type": "Polygon",
        "coordinates": [
          [
            [-105.40, 20.78],
            [-105.28, 20.80],
            [-105.16, 20.84],
            [-105.08, 20.96],
            [-105.00, 21.04],
            [-104.90, 21.02],
            [-104.98, 21.16],
            [-105.12, 21.18],
            [-105.26, 21.12],
            [-105.36, 21.00],
            [-105.45, 20.90],
            [-105.40, 20.78]
          ]
        ]
      }
    },
    {
      "type": "Feature",
      "properties": {
        "capa": "aps",
        "zona": "Nucleo",
        "area_km2": 831,
        "superficie_ha": 83078,
        "pct_territorio": 3,
        "descripcion": "Zona Núcleo del APS-Café. Producción de cafés especiales y certificados, sistemas agroforestales diversificados, prohibición de cambio de uso de suelo. Corredor Tepic-Xalisco-Compostela, 600-1,000 m s.n.m."
      },
      "geometry": {
        "type": "Polygon",
        "coordinates": [
          [
            [-105.02, 21.08],
            [-105.10, 21.18],
            [-105.14, 21.30],
            [-105.10, 21.44],
            [-105.02, 21.56],
            [-104.88, 21.70],
            [-104.74, 21.60],
            [-104.70, 21.45],
            [-104.74, 21.28],
            [-104.84, 21.10],
            [-104.98, 21.04],
            [-105.02, 21.08]
          ]
        ]
      }
    },
    {
      "type": "Feature",
      "properties": {
        "capa": "aps",
        "zona": "Amortiguamiento",
        "area_km2": 2649,
        "superficie_ha": 264851,
        "pct_territorio": 9.5,
        "descripcion": "Zona de amortiguamiento del APS-Café. Reconversión productiva y prácticas sostenibles, sistemas agroforestales menos densos, cultivos compatibles (cítricos, frutales nativos), corredores de vegetación nativa. 400-600 m s.n.m."
      },
      "geometry": {
        "type": "MultiPolygon",
        "coordinates": [
          [
            [
              [-105.36, 21.85],
              [-105.28, 21.76],
              [-105.16, 21.78],
              [-105.06, 21.74],
              [-105.00, 21.62],
              [-104.92, 21.58],
              [-104.84, 21.66],
              [-104.88, 21.80],
              [-105.00, 21.90],
              [-105.16, 21.96],
              [-105.30, 21.95],
              [-105.36, 21.85]
            ]
          ],
          [
            [
              [-104.98, 21.06],
              [-104.86, 20.95],
              [-104.70, 20.96],
              [-104.60, 21.04],
              [-104.66, 21.16],
              [-104.80, 21.18],
              [-104.92, 21.14],
              [-104.98, 21.06]
            ]
          ],
          [
            [
              [-104.78, 21.78],
              [-104.70, 21.86],
              [-104.60, 21.90],
              [-104.50, 21.80],
              [-104.55, 21.66],
              [-104.66, 21.60],
              [-104.75, 21.66],
              [-104.78, 21.78]
            ]
          ]
        ]
      }
    },
    {
      "type": "Feature",
      "properties": {
        "capa": "aps",
        "zona": "Conservacion",
        "area_km2": 4519,
        "superficie_ha": 451922,
        "pct_territorio": 16,
        "descripcion": "Zona de conservación del APS-Café. Provisión de servicios ecosistémicos: regulación hídrica, polinizadores, control biológico, conectividad del paisaje. Conservación estricta, aprovechamiento forestal no maderable y ecoturismo de bajo impacto."
      },
      "geometry": {
        "type": "MultiPolygon",
        "coordinates": [
          [
            [
              [-105.55, 22.30],
              [-105.40, 22.18],
              [-105.20, 22.12],
              [-104.95, 22.10],
              [-104.70, 22.08],
              [-104.52, 22.00],
              [-104.42, 21.90],
              [-104.38, 22.05],
              [-104.45, 22.35],
              [-104.55, 22.62],
              [-104.75, 22.80],
              [-105.00, 22.88],
              [-105.25, 22.90],
              [-105.50, 22.85],
              [-105.65, 22.70],
              [-105.70, 22.50],
              [-105.55, 22.30]
            ]
          ],
          [
            [
              [-104.72, 21.04],
              [-104.58, 20.98],
              [-104.44, 20.92],
              [-104.30, 21.00],
              [-104.24, 21.20],
              [-104.22, 21.45],
              [-104.30, 21.62],
              [-104.42, 21.72],
              [-104.55, 21.66],
              [-104.58, 21.44],
              [-104.64, 21.22],
              [-104.72, 21.04]
            ]
          ]
        ]
      }
    },
    {
      "type": "Feature",
      "properties": {
        "capa": "presencia",
        "variedad": "Coffea arabica L. (Typica, Caturra, Mundo Novo)",
        "n": 1658,
        "descripcion": "Registros georreferenciados de presencia de café (muestra ilustrativa). Obtenidos por trabajo de campo, bases oficiales SAGARPA y consultas a productores (2012-2020)."
      },
      "geometry": {
        "type": "Point",
        "coordinates": [-104.92, 21.55]
      }
    },
    {
      "type": "Feature",
      "properties": {
        "capa": "presencia",
        "descripcion": "Registro de presencia de café (muestra ilustrativa del modelo)."
      },
      "geometry": {
        "type": "Point",
        "coordinates": [-104.88, 21.50]
      }
    },
    {
      "type": "Feature",
      "properties": {
        "capa": "presencia",
        "descripcion": "Registro de presencia de café (muestra ilustrativa del modelo)."
      },
      "geometry": {
        "type": "Point",
        "coordinates": [-104.95, 21.42]
      }
    },
    {
      "type": "Feature",
      "properties": {
        "capa": "presencia",
        "descripcion": "Registro de presencia de café (muestra ilustrativa del modelo)."
      },
      "geometry": {
        "type": "Point",
        "coordinates": [-104.90, 21.34]
      }
    },
    {
      "type": "Feature",
      "properties": {
        "capa": "presencia",
        "descripcion": "Registro de presencia de café (muestra ilustrativa del modelo)."
      },
      "geometry": {
        "type": "Point",
        "coordinates": [-104.93, 21.27]
      }
    },
    {
      "type": "Feature",
      "properties": {
        "capa": "presencia",
        "descripcion": "Registro de presencia de café (muestra ilustrativa del modelo)."
      },
      "geometry": {
        "type": "Point",
        "coordinates": [-104.88, 21.22]
      }
    },
    {
      "type": "Feature",
      "properties": {
        "capa": "presencia",
        "descripcion": "Registro de presencia de café (muestra ilustrativa del modelo)."
      },
      "geometry": {
        "type": "Point",
        "coordinates": [-105.04, 21.18]
      }
    },
    {
      "type": "Feature",
      "properties": {
        "capa": "presencia",
        "descripcion": "Registro de presencia de café (muestra ilustrativa del modelo)."
      },
      "geometry": {
        "type": "Point",
        "coordinates": [-105.13, 21.42]
      }
    },
    {
      "type": "Feature",
      "properties": {
        "capa": "presencia",
        "descripcion": "Registro de presencia de café (muestra ilustrativa del modelo)."
      },
      "geometry": {
        "type": "Point",
        "coordinates": [-105.15, 21.55]
      }
    },
    {
      "type": "Feature",
      "properties": {
        "capa": "presencia",
        "descripcion": "Registro de presencia de café (muestra ilustrativa del modelo)."
      },
      "geometry": {
        "type": "Point",
        "coordinates": [-104.80, 21.60]
      }
    },
    {
      "type": "Feature",
      "properties": {
        "capa": "presencia",
        "descripcion": "Registro de presencia de café (muestra ilustrativa del modelo)."
      },
      "geometry": {
        "type": "Point",
        "coordinates": [-105.02, 21.30]
      }
    },
    {
      "type": "Feature",
      "properties": {
        "capa": "municipios",
        "nombre": "Tepic",
        "aptitud": "Alta (24% de su superficie con alta idoneidad)",
        "altura": "Capital del estado, cabecera del corredor cafetalero"
      },
      "geometry": {
        "type": "Point",
        "coordinates": [-104.89, 21.51]
      }
    },
    {
      "type": "Feature",
      "properties": {
        "capa": "municipios",
        "nombre": "Xalisco",
        "aptitud": "Alta (25% de su superficie con muy alta idoneidad)",
        "altura": "Último tramo del corredor hacia el sur del área urbana de Tepic"
      },
      "geometry": {
        "type": "Point",
        "coordinates": [-104.90, 21.43]
      }
    },
    {
      "type": "Feature",
      "properties": {
        "capa": "municipios",
        "nombre": "Compostela",
        "aptitud": "Alta (27% de su superficie con muy alta idoneidad; el mayor del estado)",
        "altura": "Zona este del municipio dentro del corredor"
      },
      "geometry": {
        "type": "Point",
        "coordinates": [-104.90, 21.24]
      }
    },
    {
      "type": "Feature",
      "properties": {
        "capa": "municipios",
        "nombre": "San Blas",
        "aptitud": "Media-Alta (suroeste del municipio; 12% de aptitud idónea)",
        "altura": "Café de altitud (ej. Cumbres de Huicicila)"
      },
      "geometry": {
        "type": "Point",
        "coordinates": [-105.28, 21.54]
      }
    },
    {
      "type": "Feature",
      "properties": {
        "capa": "municipios",
        "nombre": "Bahía de Banderas",
        "aptitud": "Baja",
        "altura": "Costa turística; no presenta áreas con aptitud cafetalera idónea"
      },
      "geometry": {
        "type": "Point",
        "coordinates": [-105.25, 20.80]
      }
    },
    {
      "type": "Feature",
      "properties": {
        "capa": "municipios",
        "nombre": "Santiago Ixcuintla",
        "aptitud": "Baja",
        "altura": "Planicie costera de baja aptitud"
      },
      "geometry": {
        "type": "Point",
        "coordinates": [-105.20, 21.81]
      }
    },
    {
      "type": "Feature",
      "properties": {
        "capa": "municipios",
        "nombre": "Acaponeta",
        "aptitud": "Baja",
        "altura": "Producción histórica variable; superficie reducida"
      },
      "geometry": {
        "type": "Point",
        "coordinates": [-105.36, 22.49]
      }
    },
    {
      "type": "Feature",
      "properties": {
        "capa": "municipios",
        "nombre": "Huajicori",
        "aptitud": "Baja",
        "altura": "Producción de baja escala"
      },
      "geometry": {
        "type": "Point",
        "coordinates": [-105.32, 22.64]
      }
    },
    {
      "type": "Feature",
      "properties": {
        "capa": "municipios",
        "nombre": "Jala",
        "aptitud": "Media",
        "altura": "Transición norte del corredor"
      },
      "geometry": {
        "type": "Point",
        "coordinates": [-104.43, 21.10]
      }
    },
    {
      "type": "Feature",
      "properties": {
        "capa": "municipios",
        "nombre": "Ixtlán del Río",
        "aptitud": "Nula (sin área de productividad cafetalera)",
        "altura": "Zona serrana al sureste"
      },
      "geometry": {
        "type": "Point",
        "coordinates": [-104.37, 21.03]
      }
    },
    {
      "type": "Feature",
      "properties": {
        "capa": "municipios",
        "nombre": "Amatlán de Cañas",
        "aptitud": "Nula (sin área de productividad cafetalera)",
        "altura": "Zona serrana al sureste"
      },
      "geometry": {
        "type": "Point",
        "coordinates": [-104.57, 20.95]
      }
    }
  ]
}